H1 CPF 01  gfz 2022 01 13 13  5132 terrasarx 
H2 0702601  6201 31698    2022 01 13 12 59 42 2022 01 18 00 00 42   120 1 1  0 0 0
H9
10 0 59593  10062.000000  0   -1372112.148   -219737.573   6736193.273
10 0 59593  10182.000000  0    -772916.895    474129.376   6817843.546
10 0 59593  10302.000000  0    -148260.400   1149015.459   6779711.234
10 0 59593  10422.000000  0     490522.266   1792799.826   6622463.311
10 0 59593  10542.000000  0    1131642.505   2394102.866   6348846.025
10 0 59593  10662.000000  0    1763074.933   2942487.072   5963639.229
10 0 59593  10782.000000  0    2372782.100   3428639.619   5473578.685
10 0 59593  10902.000000  0    2948945.043   3844534.649   4887245.186
10 0 59593  11022.000000  0    3480195.346   4183570.417   4214918.914
10 0 59593  11142.000000  0    3955841.098   4440677.886   3468403.936
10 0 59593  11262.000000  0    4366087.442   4612402.815   2660825.384
10 0 59593  11382.000000  0    4702243.569   4696953.388   1806395.079
10 0 59593  11502.000000  0    4956907.495   4694215.176    920158.591
10 0 59593  11622.000000  0    5124131.252   4605732.028     17723.890
10 0 59593  11742.000000  0    5199555.250   4434651.817   -885023.571
10 0 59593  11862.000000  0    5180510.026   4185639.393  -1772208.880
10 0 59593  11982.000000  0    5066085.083   3864759.618  -2628254.153
10 0 59593  12102.000000  0    4857162.174   3479333.288  -3438157.722
10 0 59593  12222.000000  0    4556412.042   3037770.866  -4187759.830
10 0 59593  12342.000000  0    4168255.497   2549387.690  -4863989.990
10 0 59593  12462.000000  0    3698791.047   2024204.603  -5455090.189
10 0 59593  12582.000000  0    3155691.367   1472740.623  -5950811.328
10 0 59593  12702.000000  0    2548070.498    905802.202  -6342580.974
10 0 59593  12822.000000  0    1886325.708    334272.910  -6623639.594
10 0 59593  12942.000000  0    1181958.811   -231091.718  -6789145.831
10 0 59593  13062.000000  0     447377.663   -779862.579  -6836252.806
10 0 59593  13182.000000  0    -304319.844  -1302124.965  -6764150.210
10 0 59593  13302.000000  0   -1059573.009  -1788652.273  -6574076.093
10 0 59593  13422.000000  0   -1804597.162  -2231065.343  -6269299.037
10 0 59593  13542.000000  0   -2525629.779  -2621975.013  -5855067.538
10 0 59593  13662.000000  0   -3209179.625  -2955104.890  -5338529.205
10 0 59593  13782.000000  0   -3842278.086  -3225394.634  -4728619.971
10 0 59593  13902.000000  0   -4412727.456  -3429080.395  -4035920.202
10 0 59593  14022.000000  0   -4909339.971  -3563749.894  -3272481.066
10 0 59593  14142.000000  0   -5322163.968  -3628371.753  -2451622.522
10 0 59593  14262.000000  0   -5642691.223  -3623297.399  -1587704.617
10 0 59593  14382.000000  0   -5864039.524  -3550234.659   -695876.409
10 0 59593  14502.000000  0   -5981106.256  -3412193.652    208193.016
10 0 59593  14622.000000  0   -5990688.670  -3213405.809   1108596.109
10 0 59593  14742.000000  0   -5891566.363  -2959217.546   1989476.539
10 0 59593  14862.000000  0   -5684541.910  -2655960.095   2835318.065
10 0 59593  14982.000000  0   -5372441.425  -2310801.045   3631225.157
10 0 59593  15102.000000  0   -4960074.236  -1931580.314   4363192.803
10 0 59593  15222.000000  0   -4454151.252  -1526633.720   5018355.801
10 0 59593  15342.000000  0   -3863167.944  -1104611.644   5585213.481
10 0 59593  15462.000000  0   -3197254.731   -674295.817   6053829.393
10 0 59593  15582.000000  0   -2467995.664   -244416.689   6416002.148
10 0 59593  15702.000000  0   -1688219.439    176523.227   6665402.542
10 0 59593  15822.000000  0    -871769.628    580415.335   6797677.002
10 0 59593  15942.000000  0     -33257.823    959699.577   6810518.758
10 0 59593  16062.000000  0     812197.407   1307505.062   6703705.278
10 0 59593  16182.000000  0    1649242.167   1617774.623   6479102.023
10 0 59593  16302.000000  0    2462565.170   1885370.489   6140631.395
10 0 59593  16422.000000  0    3237177.539   2106159.663   5694209.149
10 0 59593  16542.000000  0    3958691.790   2277078.324   5147646.997
10 0 59593  16662.000000  0    4613592.399   2396173.906   4510521.603
10 0 59593  16782.000000  0    5189494.763   2462625.013   3794013.614
10 0 59593  16902.000000  0    5675390.231   2476737.149   3010714.502
10 0 59593  17022.000000  0    6061863.418   2439913.226   2174403.631
10 0 59593  17142.000000  0    6341283.076   2354602.184   1299805.008
10 0 59593  17262.000000  0    6507960.110   2224224.252    402321.909
10 0 59593  17382.000000  0    6558266.617   2053075.685   -502242.748
10 0 59593  17502.000000  0    6490711.957   1846215.243  -1397974.244
10 0 59593  17622.000000  0    6305977.153   1609335.204  -2269132.434
10 0 59593  17742.000000  0    6006907.964   1348620.552  -3100436.004
10 0 59593  17862.000000  0    5598461.910   1070599.217  -3877335.564
10 0 59593  17982.000000  0    5087614.220    781988.323  -4586269.400
10 0 59593  18102.000000  0    4483225.426    489540.541  -5214896.749
10 0 59593  18222.000000  0    3795876.437    199893.789  -5752305.153
10 0 59593  18342.000000  0    3037674.414    -80571.986  -6189190.619
10 0 59593  18462.000000  0    2222032.577   -345868.592  -6518008.225
10 0 59593  18582.000000  0    1363430.552   -590521.711  -6733090.244
10 0 59593  18702.000000  0     477159.261   -809679.163  -6830735.004
10 0 59593  18822.000000  0    -420948.403   -999203.087  -6809263.343
10 0 59593  18942.000000  0   -1314793.501  -1155745.222  -6669043.514
10 0 59593  19062.000000  0   -2188293.014  -1276804.696  -6412486.296
10 0 59593  19182.000000  0   -3025663.052  -1360767.165  -6044006.976
10 0 59593  19302.000000  0   -3811697.713  -1406925.101  -5569957.619
10 0 59593  19422.000000  0   -4532044.601  -1415479.361  -4998529.798
10 0 59593  19542.000000  0   -5173469.962  -1387521.018  -4339624.068
10 0 59593  19662.000000  0   -5724107.763  -1324993.960  -3604689.439
10 0 59593  19782.000000  0   -6173689.275  -1230638.821  -2806533.471
10 0 59593  19902.000000  0   -6513746.412  -1107918.753  -1959104.218
10 0 59593  20022.000000  0   -6737783.431   -960928.585  -1077248.285
10 0 59593  20142.000000  0   -6841413.102   -794289.362   -176448.375
10 0 59593  20262.000000  0   -6822451.405   -613029.331    727454.815
10 0 59593  20382.000000  0   -6680968.438   -422456.213   1618548.553
10 0 59593  20502.000000  0   -6419294.333   -228023.820   2481137.408
10 0 59593  20622.000000  0   -6041979.259    -35195.608   3300028.645
10 0 59593  20742.000000  0   -5555708.223    150691.104   4060807.525
10 0 59593  20862.000000  0   -4969173.352    324556.140   4750095.660
10 0 59593  20982.000000  0   -4292907.949    481699.644   5355787.151
10 0 59593  21102.000000  0   -3539087.769    617915.237   5867258.932
10 0 59593  21222.000000  0   -2721302.923    729589.676   6275553.664
10 0 59593  21342.000000  0   -1854305.628    813787.015   6573531.337
10 0 59593  21462.000000  0    -953738.494    868317.018   6755988.418
10 0 59593  21582.000000  0     -35849.840    891785.362   6819741.897
10 0 59593  21702.000000  0     882798.956    883624.974   6763680.676
10 0 59593  21822.000000  0    1785630.926    844108.636   6588783.715
10 0 59593  21942.000000  0    2656351.445    774342.343   6298104.173
10 0 59593  22062.000000  0    3479242.364    676239.294   5896720.304
10 0 59593  22182.000000  0    4239448.362    552475.074   5391651.764
10 0 59593  22302.000000  0    4923248.867    406424.692   4791742.821
10 0 59593  22422.000000  0    5518312.464    242081.670   4107514.151
10 0 59593  22542.000000  0    6013929.191     63962.578   3350982.693
10 0 59593  22662.000000  0    6401213.966   -123001.359   2535451.615
10 0 59593  22782.000000  0    6673275.023   -313584.706   1675274.320
10 0 59593  22902.000000  0    6825344.957   -502397.413    785598.458
10 0 59593  23022.000000  0    6854870.937   -684018.094   -117907.468
10 0 59593  23142.000000  0    6761560.261   -853129.790  -1019339.426
10 0 59593  23262.000000  0    6547378.880  -1004654.105  -1902846.810
10 0 59593  23382.000000  0    6216504.905  -1133879.851  -2752919.181
10 0 59593  23502.000000  0    5775238.009  -1236583.280  -3554663.862
10 0 59593  23622.000000  0    5231868.221  -1309136.686  -4294069.065
10 0 59593  23742.000000  0    4596507.976  -1348602.494  -4958247.051
10 0 59593  23862.000000  0    3880892.863  -1352811.657  -5535653.674
10 0 59593  23982.000000  0    3098154.882  -1320425.172  -6016280.986
10 0 59593  24102.000000  0    2262574.718  -1250976.586  -6391819.659
10 0 59593  24222.000000  0    1389318.706  -1144894.545  -6655791.714
10 0 59593  24342.000000  0     494164.119  -1003506.863  -6803651.586
10 0 59593  24462.000000  0    -406782.023   -829025.655  -6832856.106
10 0 59593  24582.000000  0   -1297366.409   -624513.182  -6742903.001
10 0 59593  24702.000000  0   -2161672.554   -393829.268  -6535338.981
10 0 59593  24822.000000  0   -2984298.953   -141560.621  -6213734.816
10 0 59593  24942.000000  0   -3750627.302    127066.277  -5783630.578
10 0 59593  25062.000000  0   -4447081.075    406288.438  -5252451.068
10 0 59593  25182.000000  0   -5061367.974    689923.452  -4629388.381
10 0 59593  25302.000000  0   -5582703.266    971499.150  -3925255.464
10 0 59593  25422.000000  0   -6002009.338   1244394.529  -3152308.132
10 0 59593  25542.000000  0   -6312085.330   1501987.653  -2324038.556
10 0 59593  25662.000000  0   -6507743.414   1737807.198  -1454943.259
10 0 59593  25782.000000  0   -6585908.112   1945685.053   -560268.891
10 0 59593  25902.000000  0   -6545674.078   2119905.032    344260.599
10 0 59593  26022.000000  0   -6388319.732   2255343.855   1242727.615
10 0 59593  26142.000000  0   -6117277.406   2347601.924   2119309.336
10 0 59593  26262.000000  0   -5738059.584   2393119.667   2958565.650
10 0 59593  26382.000000  0   -5258143.509   2389275.716   3745719.253
10 0 59593  26502.000000  0   -4686816.600   2334464.409   4466921.904
99
